STARLINK-2085
1 17369C 21005W   21326.13941075 -.00012209  00000-0 -81786-3 0  3264
2 17369  53.0539 243.1236 0002021  61.7180  79.5205 15.06416059    11
